NLLOC "/Users/roberto/Documents/SurfQuakeCore/examples/earthquake_locate/loc/location.20220202.233532.grid0" "LOCATED" "Location completed."
PUBLIC_ID None
SIGNATURE "Integrated Seismic Program   obs:/Users/roberto/Documents/SurfQuakeCore/examples/earthquake_locate/nll_picks/nll_input.txt   NLLoc:v7.00.13(17Jan2022)   run:29Nov2023 09h21m47"
COMMENT ""
GRID  80 80 50  0 0 -3  1 1 1 PROB_DENSITY
SEARCH OCTREE nInitial 1000 nEvaluated 25000 smallestNodeSide 0.012344/0.123438/0.765625 oct_tree_integral 1.675914e+01 scatter_volume 1.658990e+01
HYPOCENTER  x 44.1598 y 47.5852 z 4.27344  OT 30.8816  ix -1 iy -1 iz -1 MAXIMUM_LIKELIHOOD
GEOGRAPHIC  OT 2022 02 02  23 35 30.881639  Lat 42.527943 Long 1.438895 Depth 4.273438
QUALITY  Pmax 4.20626e+20 MFmin 12.4194 MFmax 12.5917 RMS 0.12665 Nphs 10 Gap 155.69 Dist 8.80113 Mamp -9.90 0 Mdur -9.90 0
VPVSRATIO  VpVsRatio 1.83364  Npair 5  Diff 3.41
STATISTICS  ExpectX 44.197378 Y 47.706684 Z 3.343745  CovXX 0.495072 XY 0.267386 XZ 1.45834 YY 0.826504 YZ 1.02246 ZZ 9.80588 EllAz1  103.31 Dip1  -7.05901 Len1  0.932326 Az2  12.2863 Dip2  -8.21273 Len2  1.60934 Len3  5.985040e+00
STAT_GEOG  ExpectLat 42.529036 Long 1.439364 Depth 3.343745
TRANSFORM  SIMPLE LatOrig 42.100000  LongOrig 0.900000  RotCW 0.000000
QML_OriginQuality  assocPhCt 19  usedPhCt 10  assocStaCt -1  usedStaCt 5  depthPhCt -1  stdErr 0.12665  azGap 155.69  secAzGap 155.69  gtLevel -  minDist 8.80113 maxDist 34.6644 medDist 17.0947
QML_OriginUncertainty  horUnc -1  minHorUnc 0.892351  maxHorUnc 1.49778  azMaxHorUnc 29.1055
QML_ConfidenceEllipsoid  semiMajorAxisLength 5.98504  semiMinorAxisLength 0.932326  semiIntermediateAxisLength 1.60934  majorAxisPlunge 79.1385  majorAxisAzimuth 53.5042  majorAxisRotation 42.8014
FOCALMECH  Hyp  42.527943 1.438895 4.273438 Mech  0 0 0 mf  0 nObs -1
PHASE ID Ins Cmp On Pha  FM Date     HrMn   Sec     Err  ErrMag    Coda      Amp       Per  >   TTpred    Res       Weight    StaLoc(X  Y         Z)        SDist    SAzim  RAz  RDip RQual    Tcorr 
PAND   ?    ?    ? P      ? 20220202 2335   32.6800 GAU  2.50e-03 -1.00e+00  3.60e+10 -1.00e+00 >    1.7581    0.0402    1.1312   52.9482   47.1134   -1.8400    8.8011  93.07  93.1 124.7  9     0.0000
PAND   ?    ?    ? S      ? 20220202 2335   34.1100 GAU  2.50e-03 -1.00e+00  5.94e+10 -1.00e+00 >    3.0730    0.1554    1.0126   52.9482   47.1134   -1.8400    8.8011  93.07  93.1 124.7  9     0.0000
ARBS   ?    ?    ? P      ? 20220202 2335   33.1400 GAU  2.50e-03 -1.00e+00  1.51e+07 -1.00e+00 >    2.3812   -0.1228    1.0200   52.0106   37.1939   -2.1450   13.0236 142.93 142.9 116.1  9     0.0000
ARBS   ?    ?    ? S      ? 20220202 2335   34.9200 GAU  7.50e-03 -1.00e+00  2.16e+07 -1.00e+00 >    4.1619   -0.1235    1.0186   52.0106   37.1939   -2.1450   13.0236 142.93 142.9 116.1  9     0.0000
CEST   ?    ?    ? P      ? 20220202 2335   33.9100 GAU  2.50e-03 -1.00e+00  3.27e+07 -1.00e+00 >    2.9553    0.0731    1.1126   28.9805   55.4475   -1.3250   17.0947 297.38 297.4 108.1  9     0.0000
CEST   ?    ?    ? S      ? 20220202 2335   35.9400 GAU  7.50e-03 -1.00e+00  3.61e+07 -1.00e+00 >    5.1654   -0.1070    1.0447   28.9805   55.4475   -1.3250   17.0947 297.38 297.4 108.1  9     0.0000
CSOR   ?    ?    ? P      ? 20220202 2335   35.9600 GAU  5.00e-03 -1.00e+00  3.02e+07 -1.00e+00 >    5.0604    0.0180    1.1360   19.1189   30.5152   -1.2270   30.3056 235.72 235.7 100.8  9     0.0000
CSOR   ?    ?    ? S      ? 20220202 2335   39.8100 GAU  5.00e-03 -1.00e+00  2.99e+07 -1.00e+00 >    8.8447    0.0836    1.1038   19.1189   30.5152   -1.2270   30.3056 235.72 235.7 100.8  9     0.0000
CORG   ?    ?    ? P      ? 20220202 2335   36.6000 GAU  7.50e-03 -1.00e+00  7.43e+06 -1.00e+00 >    5.7519   -0.0336    1.1222   34.2955   14.3539   -0.7200   34.6644 196.53 196.5  98.8  9     0.0000
CORG   ?    ?    ? S      ? 20220202 2335   41.4400 GAU  1.00e-02 -1.00e+00  9.92e+06 -1.00e+00 >   10.0535    0.5049    0.2982   34.2955   14.3539   -0.7200   34.6644 196.53 196.5  98.8  9     0.0000
FNEB   ?    ?    ? S      ? 20220202 2335   51.6100 GAU  2.00e-02 -1.00e+00  1.07e+09 -1.00e+00 >    0.0000    0.0000    0.0000   98.2626   89.3008   -0.6000    0.0000   0.00 359.0  -1.0  0     0.0000
SALF   ?    ?    ? P      ? 20220202 2335   36.4400 GAU  5.00e-03 -1.00e+00  2.98e+09 -1.00e+00 >    0.0000    0.0000    0.0000   23.5372   73.2776   -0.9030    0.0000   0.00 359.0  -1.0  0     0.0000
GENF   ?    ?    ? P      ? 20220202 2335   36.9000 GAU  2.50e-03 -1.00e+00  6.70e+06 -1.00e+00 >    0.0000    0.0000    0.0000   54.8304   80.4274   -0.9600    0.0000   0.00 359.0  -1.0  0     0.0000
VALC   ?    ?    ? P      ? 20220202 2335   37.8700 GAU  2.00e-02 -1.00e+00  6.82e+06 -1.00e+00 >    0.0000    0.0000    0.0000   93.6562   31.9810   -1.5600    0.0000   0.00 359.0  -1.0  0     0.0000
SALF   ?    ?    ? S      ? 20220202 2335   40.2900 GAU  7.50e-03 -1.00e+00  2.98e+09 -1.00e+00 >    0.0000    0.0000    0.0000   23.5372   73.2776   -0.9030    0.0000   0.00 359.0  -1.0  0     0.0000
CARF   ?    ?    ? P      ? 20220202 2335   40.7100 GAU  5.00e-03 -1.00e+00  1.12e+09 -1.00e+00 >    0.0000    0.0000    0.0000   98.4149   68.3739   -1.2200    0.0000   0.00 359.0  -1.0  0     0.0000
GENF   ?    ?    ? S      ? 20220202 2335   41.2200 GAU  7.50e-03 -1.00e+00  1.50e+07 -1.00e+00 >    0.0000    0.0000    0.0000   54.8304   80.4274   -0.9600    0.0000   0.00 359.0  -1.0  0     0.0000
VALC   ?    ?    ? S      ? 20220202 2335   46.8500 GAU  1.00e-02 -1.00e+00  7.44e+06 -1.00e+00 >    0.0000    0.0000    0.0000   93.6562   31.9810   -1.5600    0.0000   0.00 359.0  -1.0  0     0.0000
CARF   ?    ?    ? S      ? 20220202 2335   48.1100 GAU  5.00e-03 -1.00e+00  2.19e+09 -1.00e+00 >    0.0000    0.0000    0.0000   98.4149   68.3739   -1.2200    0.0000   0.00 359.0  -1.0  0     0.0000
END_PHASE
END_NLLOC

