NLLOC "/Users/roberto/Documents/SurfQuakeCore/examples/earthquake_locate/loc/location.20220201.024514.grid0" "LOCATED" "Location completed."
PUBLIC_ID None
SIGNATURE "Integrated Seismic Program   obs:/Users/roberto/Documents/SurfQuakeCore/examples/earthquake_locate/nll_picks/nll_input.txt   NLLoc:v7.00.13(17Jan2022)   run:29Nov2023 09h21m45"
COMMENT ""
GRID  80 80 50  0 0 -3  1 1 1 PROB_DENSITY
SEARCH OCTREE nInitial 1000 nEvaluated 25008 smallestNodeSide 0.012344/0.123438/0.765625 oct_tree_integral 1.324345e+01 scatter_volume 1.301151e+01
HYPOCENTER  x 44.1227 y 47.3383 z 3.50781  OT 13.1481  ix -1 iy -1 iz -1 MAXIMUM_LIKELIHOOD
GEOGRAPHIC  OT 2022 02 01  02 45 13.148134  Lat 42.525723 Long 1.438424 Depth 3.507812
QUALITY  Pmax 4.64041e+20 MFmin 12.4138 MFmax 12.5149 RMS 0.0987624 Nphs 10 Gap 153.289 Dist 8.82837 Mamp -9.90 0 Mdur -9.90 0
VPVSRATIO  VpVsRatio 1.79646  Npair 5  Diff 3.57
STATISTICS  ExpectX 44.258733 Y 47.506136 Z 2.867800  CovXX 0.475231 XY 0.271914 XZ 1.40221 YY 0.77792 YZ 0.831377 ZZ 8.71498 EllAz1  105.401 Dip1  -7.57259 Len1  0.854764 Az2  14.3027 Dip2  -8.20305 Len2  1.59818 Len3  5.648248e+00
STAT_GEOG  ExpectLat 42.527232 Long 1.440097 Depth 2.867800
TRANSFORM  SIMPLE LatOrig 42.100000  LongOrig 0.900000  RotCW 0.000000
QML_OriginQuality  assocPhCt 17  usedPhCt 10  assocStaCt -1  usedStaCt 5  depthPhCt -1  stdErr 0.0987624  azGap 153.289  secAzGap 153.289  gtLevel -  minDist 8.82837 maxDist 34.4172 medDist 17.177
QML_OriginUncertainty  horUnc -1  minHorUnc 0.851689  maxHorUnc 1.46863  azMaxHorUnc 30.4501
QML_ConfidenceEllipsoid  semiMajorAxisLength 5.64825  semiMinorAxisLength 0.854764  semiIntermediateAxisLength 1.59818  majorAxisPlunge 78.8004  majorAxisAzimuth 57.578  majorAxisRotation 44.9708
FOCALMECH  Hyp  42.525723 1.438424 3.507812 Mech  0 0 0 mf  0 nObs -1
PHASE ID Ins Cmp On Pha  FM Date     HrMn   Sec     Err  ErrMag    Coda      Amp       Per  >   TTpred    Res       Weight    StaLoc(X  Y         Z)        SDist    SAzim  RAz  RDip RQual    Tcorr 
PAND   ?    ?    ? P      ? 20220201 0245   14.8400 GAU  2.50e-03 -1.00e+00  9.09e+09 -1.00e+00 >    1.6939   -0.0020    1.1438   52.9482   47.1134   -1.8400    8.8284  91.46  91.5 121.1  9     0.0000
PAND   ?    ?    ? S      ? 20220201 0245   16.1900 GAU  2.50e-03 -1.00e+00  1.60e+10 -1.00e+00 >    2.9606    0.0812    1.0970   52.9482   47.1134   -1.8400    8.8284  91.46  91.5 121.1  9     0.0000
ARBS   ?    ?    ? P      ? 20220201 0245   15.2600 GAU  5.00e-03 -1.00e+00  1.16e+07 -1.00e+00 >    2.3028   -0.1909    0.9066   52.0106   37.1939   -2.1450   12.8502 142.13 142.1 113.6  9     0.0000
ARBS   ?    ?    ? S      ? 20220201 0245   17.1600 GAU  1.00e-02 -1.00e+00  1.16e+07 -1.00e+00 >    4.0249   -0.0130    1.1422   52.0106   37.1939   -2.1450   12.8502 142.13 142.1 113.6  9     0.0000
CEST   ?    ?    ? P      ? 20220201 0245   16.1600 GAU  2.50e-03 -1.00e+00  2.06e+07 -1.00e+00 >    2.9317    0.0802    1.0982   28.9805   55.4475   -1.3250   17.1770 298.17 298.2 105.8  9     0.0000
CEST   ?    ?    ? S      ? 20220201 0245   18.1900 GAU  5.00e-03 -1.00e+00  1.47e+07 -1.00e+00 >    5.1241   -0.0822    1.0966   28.9805   55.4475   -1.3250   17.1770 298.17 298.2 105.8  9     0.0000
CSOR   ?    ?    ? P      ? 20220201 0245   18.1900 GAU  2.50e-03 -1.00e+00  1.11e+07 -1.00e+00 >    5.0111    0.0308    1.1367   19.1189   30.5152   -1.2270   30.1365 236.07 236.1  99.5  9     0.0000
CSOR   ?    ?    ? S      ? 20220201 0245   21.9200 GAU  2.00e-02 -1.00e+00  1.48e+07 -1.00e+00 >    8.7586    0.0133    1.1403   19.1189   30.5152   -1.2270   30.1365 236.07 236.1  99.5  9     0.0000
CORG   ?    ?    ? P      ? 20220201 0245   18.8400 GAU  1.00e-02 -1.00e+00  8.41e+06 -1.00e+00 >    5.6940   -0.0021    1.1433   34.2955   14.3539   -0.7200   34.4172 196.59 196.6  97.6  9     0.0000
CORG   ?    ?    ? S      ? 20220201 0245   23.7600 GAU  2.00e-02 -1.00e+00  8.41e+06 -1.00e+00 >    9.9522    0.6597    0.0952   34.2955   14.3539   -0.7200   34.4172 196.59 196.6  97.6  9     0.0000
FNEB   ?    ?    ? S      ? 20220201 0245   36.1500 GAU  2.00e-02 -1.00e+00  8.35e+09 -1.00e+00 >    0.0000    0.0000    0.0000   98.2626   89.3008   -0.6000    0.0000   0.00 359.0  -1.0  0     0.0000
SALF   ?    ?    ? P      ? 20220201 0245   19.1100 GAU  2.50e-03 -1.00e+00  2.59e+09 -1.00e+00 >    0.0000    0.0000    0.0000   23.5372   73.2776   -0.9030    0.0000   0.00 359.0  -1.0  0     0.0000
GENF   ?    ?    ? P      ? 20220201 0245   19.1600 GAU  7.50e-03 -1.00e+00  4.63e+06 -1.00e+00 >    0.0000    0.0000    0.0000   54.8304   80.4274   -0.9600    0.0000   0.00 359.0  -1.0  0     0.0000
SALF   ?    ?    ? S      ? 20220201 0245   22.6400 GAU  7.50e-03 -1.00e+00  2.59e+09 -1.00e+00 >    0.0000    0.0000    0.0000   23.5372   73.2776   -0.9030    0.0000   0.00 359.0  -1.0  0     0.0000
GENF   ?    ?    ? S      ? 20220201 0245   23.4500 GAU  1.00e-02 -1.00e+00  7.64e+06 -1.00e+00 >    0.0000    0.0000    0.0000   54.8304   80.4274   -0.9600    0.0000   0.00 359.0  -1.0  0     0.0000
CARF   ?    ?    ? S      ? 20220201 0245   30.2100 GAU  1.00e-02 -1.00e+00  2.26e+09 -1.00e+00 >    0.0000    0.0000    0.0000   98.4149   68.3739   -1.2200    0.0000   0.00 359.0  -1.0  0     0.0000
FNEB   ?    ?    ? P      ? 20220201 0245   34.3600 GAU  2.00e-02 -1.00e+00  8.95e+09 -1.00e+00 >    0.0000    0.0000    0.0000   98.2626   89.3008   -0.6000    0.0000   0.00 359.0  -1.0  0     0.0000
END_PHASE
END_NLLOC

