NLLOC "/Users/roberto/Documents/SurfQuake/loc_flow_isp/loc_flow_tools/location_output/loc/location.20220201.020301.grid0" "LOCATED" "Location completed."
SIGNATURE "Integrated Seismic Program   obs:/Users/roberto/Documents/SurfQuake/loc_flow_isp/loc_flow_tools/location_output/obs/nll_input.txt   NLLoc:v7.00.00(27Oct2017)  run:11Sep2023 20h14m56"
COMMENT ""
GRID  80 80 50  0 0 -3  1 1 1 PROB_DENSITY
SEARCH OCTREE nInitial 1000 nEvaluated 25000 smallestNodeSide 0.012344/0.123438/0.781250 oct_tree_integral 1.191715e+01 scatter_volume 1.180375e+01
HYPOCENTER  x 44.3264 y 47.5234 z 5.59375  OT 0.0103147  ix -1 iy -1 iz -1 MAXIMUM_LIKELIHOOD
GEOGRAPHIC  OT 2022 02 01  02 03 0.010315  Lat 42.527711 Long 1.441336 Depth 5.593750
QUALITY  Pmax 3.27426e+20 MFmin 12.4197 MFmax 12.5168 RMS 0.0983767 Nphs 10 Gap 155.819 Dist 8.59341 Mamp -9.90 0 Mdur -9.90 0
VPVSRATIO  VpVsRatio 1.85908  Npair 5  Diff 3.74
STATISTICS  ExpectX 44.3554 Y 47.5074 Z 4.90168  CovXX 0.527547 XY 0.245019 XZ 1.44245 YY 0.90448 YZ 0.780371 ZZ 7.88002 EllAz1  99.4686 Dip1  -9.61479 Len1  0.918425 Az2  8.12419 Dip2  -7.88527 Len2  1.71198 Len3  5.394175e+00
STAT_GEOG  ExpectLat 42.527566 Long 1.441688 Depth 4.901684
TRANSFORM  SIMPLE LatOrig 42.100000  LongOrig 0.900000  RotCW 0.000000
QML_OriginQuality  assocPhCt 20  usedPhCt 10  assocStaCt -1  usedStaCt 5  depthPhCt -1  stdErr 0.0983767  azGap 155.819  secAzGap 155.819  gtLevel -  minDist 8.59341 maxDist 34.6709 medDist 17.2713
QML_OriginUncertainty  horUnc -1  minHorUnc 0.967398  maxHorUnc 1.53551  azMaxHorUnc 26.2164
QML_ConfidenceEllipsoid  semiMajorAxisLength 5.39417  semiMinorAxisLength 0.918425  semiIntermediateAxisLength 1.71198  majorAxisPlunge 77.5174  majorAxisAzimuth 59.3958  majorAxisRotation 53.3273
FOCALMECH  Hyp  42.527711 1.441336 5.593750 Mech  0 0 0 mf  0 nObs 0
PHASE ID Ins Cmp On Pha  FM Date     HrMn   Sec     Err  ErrMag    Coda      Amp       Per  >   TTpred    Res       Weight    StaLoc(X  Y         Z)        SDist    SAzim  RAz  RDip RQual    Tcorr 
PAND   ?    ?    ? P      ? 20220201 0203    1.9000 GAU  2.50e-03 -1.00e+00  1.46e+13 -1.00e+00 >    1.8645    0.0252    1.1585   52.9083   47.0778   -1.8400    8.5934  92.97  93.0 130.8  9     0.0000
PAND   ?    ?    ? S      ? 20220201 0203    3.3400 GAU  5.00e-03 -1.00e+00  2.42e+13 -1.00e+00 >    3.2588    0.0709    1.1268   52.9083   47.0778   -1.8400    8.5934  92.97  93.0 130.8  9     0.0000
ARBS   ?    ?    ? P      ? 20220201 0203    2.3400 GAU  2.50e-03 -1.00e+00  6.14e+09 -1.00e+00 >    2.4635   -0.1338    1.0386   51.9713   37.1658   -2.1450   12.8734 143.57 143.6 120.9  9     0.0000
ARBS   ?    ?    ? S      ? 20220201 0203    4.2900 GAU  1.00e-02 -1.00e+00  1.59e+10 -1.00e+00 >    4.3058   -0.0262    1.1578   51.9713   37.1658   -2.1450   12.8734 143.57 143.6 120.9  9     0.0000
CEST   ?    ?    ? P      ? 20220201 0203    3.2000 GAU  5.00e-03 -1.00e+00  1.78e+10 -1.00e+00 >    3.0570    0.1327    1.0412   28.9586   55.4057   -1.3250   17.2713 297.15 297.2 111.7  9     0.0000
CEST   ?    ?    ? S      ? 20220201 0203    5.2100 GAU  7.50e-03 -1.00e+00  1.68e+10 -1.00e+00 >    5.3431   -0.1434    1.0209   28.9586   55.4057   -1.3250   17.2713 297.15 297.2 111.7  9     0.0000
CSOR   ?    ?    ? P      ? 20220201 0203    5.1500 GAU  5.00e-03 -1.00e+00  1.93e+10 -1.00e+00 >    5.1257    0.0140    1.1616   19.1045   30.4921   -1.2270   30.4337 235.97 236.0 103.0  9     0.0000
CSOR   ?    ?    ? S      ? 20220201 0203    9.0500 GAU  5.00e-03 -1.00e+00  2.40e+10 -1.00e+00 >    8.9589    0.0808    1.1162   19.1045   30.4921   -1.2270   30.4337 235.97 236.0 103.0  9     0.0000
CORG   ?    ?    ? P      ? 20220201 0203    5.7500 GAU  5.00e-03 -1.00e+00  4.64e+09 -1.00e+00 >    5.7899   -0.0502    1.1450   34.2696   14.3431   -0.7200   34.6709 196.86 196.9 100.8  9     0.0000
CORG   ?    ?    ? S      ? 20220201 0203   10.9300 GAU  1.50e-02 -1.00e+00  4.64e+09 -1.00e+00 >   10.1198    0.7999    0.0333   34.2696   14.3431   -0.7200   34.6709 196.86 196.9 100.8  9     0.0000
FNEB   ?    ?    ? S      ? 20220201 0203   20.7300 GAU  1.00e-02 -1.00e+00  3.83e+11 -1.00e+00 >    0.0000    0.0000    0.0000   98.1884   89.2333   -0.6000    0.0000   0.00 359.0  -1.0  0     0.0000
SALF   ?    ?    ? P      ? 20220201 0203    5.6300 GAU  1.00e-02 -1.00e+00  2.76e+12 -1.00e+00 >    0.0000    0.0000    0.0000   23.5194   73.2222   -0.9030    0.0000   0.00 359.0  -1.0  0     0.0000
GENF   ?    ?    ? P      ? 20220201 0203    6.1500 GAU  2.50e-03 -1.00e+00  2.85e+09 -1.00e+00 >    0.0000    0.0000    0.0000   54.7890   80.3667   -0.9600    0.0000   0.00 359.0  -1.0  0     0.0000
VALC   ?    ?    ? P      ? 20220201 0203    8.5900 GAU  2.50e-03 -1.00e+00  1.44e+09 -1.00e+00 >    0.0000    0.0000    0.0000   93.5854   31.9569   -1.5600    0.0000   0.00 359.0  -1.0  0     0.0000
SALF   ?    ?    ? S      ? 20220201 0203    9.5800 GAU  1.00e-02 -1.00e+00  1.49e+12 -1.00e+00 >    0.0000    0.0000    0.0000   23.5194   73.2222   -0.9030    0.0000   0.00 359.0  -1.0  0     0.0000
CARF   ?    ?    ? P      ? 20220201 0203    9.9000 GAU  5.00e-03 -1.00e+00  4.58e+11 -1.00e+00 >    0.0000    0.0000    0.0000   98.3406   68.3222   -1.2200    0.0000   0.00 359.0  -1.0  0     0.0000
GENF   ?    ?    ? S      ? 20220201 0203   10.5300 GAU  7.50e-03 -1.00e+00  5.30e+09 -1.00e+00 >    0.0000    0.0000    0.0000   54.7890   80.3667   -0.9600    0.0000   0.00 359.0  -1.0  0     0.0000
FNEB   ?    ?    ? P      ? 20220201 0203   11.8300 GAU  2.50e-03 -1.00e+00  1.42e+11 -1.00e+00 >    0.0000    0.0000    0.0000   98.1884   89.2333   -0.6000    0.0000   0.00 359.0  -1.0  0     0.0000
VALC   ?    ?    ? S      ? 20220201 0203   15.4100 GAU  1.50e-02 -1.00e+00  2.47e+09 -1.00e+00 >    0.0000    0.0000    0.0000   93.5854   31.9569   -1.5600    0.0000   0.00 359.0  -1.0  0     0.0000
CARF   ?    ?    ? S      ? 20220201 0203   17.3000 GAU  1.50e-02 -1.00e+00  9.98e+11 -1.00e+00 >    0.0000    0.0000    0.0000   98.3406   68.3222   -1.2200    0.0000   0.00 359.0  -1.0  0     0.0000
END_PHASE
END_NLLOC

