NLLOC "/Users/roberto/Documents/SurfQuakeCore/examples/earthquake_locate/loc/location.20220201.020301.grid0" "LOCATED" "Location completed."
PUBLIC_ID None
SIGNATURE "Integrated Seismic Program   obs:/Users/roberto/Documents/SurfQuakeCore/examples/earthquake_locate/nll_picks/nll_input.txt   NLLoc:v7.00.13(17Jan2022)   run:29Nov2023 09h21m45"
COMMENT ""
GRID  80 80 50  0 0 -3  1 1 1 PROB_DENSITY
SEARCH OCTREE nInitial 1000 nEvaluated 25000 smallestNodeSide 0.012344/0.123438/0.765625 oct_tree_integral 1.191491e+01 scatter_volume 1.191491e+01
HYPOCENTER  x 44.3943 y 47.4617 z 5.80469  OT 59.997  ix -1 iy -1 iz -1 MAXIMUM_LIKELIHOOD
GEOGRAPHIC  OT 2022 02 01  02 02 59.997001  Lat 42.526833 Long 1.441748 Depth 5.804688
QUALITY  Pmax 3.25411e+20 MFmin 12.4197 MFmax 12.5175 RMS 0.0963799 Nphs 10 Gap 154.944 Dist 8.56103 Mamp -9.90 0 Mdur -9.90 0
VPVSRATIO  VpVsRatio 1.85908  Npair 5  Diff 3.74
STATISTICS  ExpectX 44.386378 Y 47.547276 Z 4.880455  CovXX 0.513386 XY 0.252099 XZ 1.45081 YY 0.915329 YZ 0.772436 ZZ 8.03568 EllAz1  100.029 Dip1  -9.40736 Len1  0.890616 Az2  8.72974 Dip2  -7.79195 Len2  1.72924 Len3  5.442963e+00
STAT_GEOG  ExpectLat 42.527602 Long 1.441658 Depth 4.880455
TRANSFORM  SIMPLE LatOrig 42.100000  LongOrig 0.900000  RotCW 0.000000
QML_OriginQuality  assocPhCt 20  usedPhCt 10  assocStaCt -1  usedStaCt 5  depthPhCt -1  stdErr 0.0963799  azGap 154.944  secAzGap 154.944  gtLevel -  minDist 8.56103 maxDist 34.6137 medDist 17.3597
QML_OriginUncertainty  horUnc -1  minHorUnc 0.949472  maxHorUnc 1.5442  azMaxHorUnc 25.7192
QML_ConfidenceEllipsoid  semiMajorAxisLength 5.44296  semiMinorAxisLength 0.890616  semiIntermediateAxisLength 1.72924  majorAxisPlunge 77.7392  majorAxisAzimuth 59.7038  majorAxisRotation 52.9603
FOCALMECH  Hyp  42.526833 1.441748 5.804688 Mech  0 0 0 mf  0 nObs -1
PHASE ID Ins Cmp On Pha  FM Date     HrMn   Sec     Err  ErrMag    Coda      Amp       Per  >   TTpred    Res       Weight    StaLoc(X  Y         Z)        SDist    SAzim  RAz  RDip RQual    Tcorr 
PAND   ?    ?    ? P      ? 20220201 0203    1.9000 GAU  2.50e-03 -1.00e+00  1.46e+13 -1.00e+00 >    1.8830    0.0200    1.1605   52.9482   47.1134   -1.8400    8.5610  92.33  92.3 131.7  9     0.0000
PAND   ?    ?    ? S      ? 20220201 0203    3.3400 GAU  5.00e-03 -1.00e+00  2.42e+13 -1.00e+00 >    3.2912    0.0518    1.1424   52.9482   47.1134   -1.8400    8.5610  92.33  92.3 131.7  9     0.0000
ARBS   ?    ?    ? P      ? 20220201 0203    2.3400 GAU  2.50e-03 -1.00e+00  6.14e+09 -1.00e+00 >    2.4688   -0.1258    1.0580   52.0106   37.1939   -2.1450   12.7842 143.43 143.4 121.8  9     0.0000
ARBS   ?    ?    ? S      ? 20220201 0203    4.2900 GAU  1.00e-02 -1.00e+00  1.59e+10 -1.00e+00 >    4.3151   -0.0221    1.1612   52.0106   37.1939   -2.1450   12.7842 143.43 143.4 121.8  9     0.0000
CEST   ?    ?    ? P      ? 20220201 0203    3.2000 GAU  5.00e-03 -1.00e+00  1.78e+10 -1.00e+00 >    3.0832    0.1198    1.0586   28.9805   55.4475   -1.3250   17.3597 297.39 297.4 112.2  9     0.0000
CEST   ?    ?    ? S      ? 20220201 0203    5.2100 GAU  7.50e-03 -1.00e+00  1.68e+10 -1.00e+00 >    5.3889   -0.1759    0.9618   28.9805   55.4475   -1.3250   17.3597 297.39 297.4 112.2  9     0.0000
CSOR   ?    ?    ? P      ? 20220201 0203    5.1500 GAU  5.00e-03 -1.00e+00  1.93e+10 -1.00e+00 >    5.1329    0.0201    1.1604   19.1189   30.5152   -1.2270   30.4308 236.16 236.2 103.3  9     0.0000
CSOR   ?    ?    ? S      ? 20220201 0203    9.0500 GAU  5.00e-03 -1.00e+00  2.40e+10 -1.00e+00 >    8.9715    0.0815    1.1131   19.1189   30.5152   -1.2270   30.4308 236.16 236.2 103.3  9     0.0000
CORG   ?    ?    ? P      ? 20220201 0203    5.7500 GAU  5.00e-03 -1.00e+00  4.64e+09 -1.00e+00 >    5.7870   -0.0340    1.1573   34.2955   14.3539   -0.7200   34.6137 196.96 197.0 101.1  9     0.0000
CORG   ?    ?    ? S      ? 20220201 0203   10.9300 GAU  1.50e-02 -1.00e+00  4.64e+09 -1.00e+00 >   10.1149    0.8181    0.0268   34.2955   14.3539   -0.7200   34.6137 196.96 197.0 101.1  9     0.0000
FNEB   ?    ?    ? S      ? 20220201 0203   20.7300 GAU  1.00e-02 -1.00e+00  3.83e+11 -1.00e+00 >    0.0000    0.0000    0.0000   98.2626   89.3008   -0.6000    0.0000   0.00 359.0  -1.0  0     0.0000
SALF   ?    ?    ? P      ? 20220201 0203    5.6300 GAU  1.00e-02 -1.00e+00  2.76e+12 -1.00e+00 >    0.0000    0.0000    0.0000   23.5372   73.2776   -0.9030    0.0000   0.00 359.0  -1.0  0     0.0000
GENF   ?    ?    ? P      ? 20220201 0203    6.1500 GAU  2.50e-03 -1.00e+00  2.85e+09 -1.00e+00 >    0.0000    0.0000    0.0000   54.8304   80.4274   -0.9600    0.0000   0.00 359.0  -1.0  0     0.0000
VALC   ?    ?    ? P      ? 20220201 0203    8.5900 GAU  2.50e-03 -1.00e+00  1.44e+09 -1.00e+00 >    0.0000    0.0000    0.0000   93.6562   31.9810   -1.5600    0.0000   0.00 359.0  -1.0  0     0.0000
SALF   ?    ?    ? S      ? 20220201 0203    9.5800 GAU  1.00e-02 -1.00e+00  1.49e+12 -1.00e+00 >    0.0000    0.0000    0.0000   23.5372   73.2776   -0.9030    0.0000   0.00 359.0  -1.0  0     0.0000
CARF   ?    ?    ? P      ? 20220201 0203    9.9000 GAU  5.00e-03 -1.00e+00  4.58e+11 -1.00e+00 >    0.0000    0.0000    0.0000   98.4149   68.3739   -1.2200    0.0000   0.00 359.0  -1.0  0     0.0000
GENF   ?    ?    ? S      ? 20220201 0203   10.5300 GAU  7.50e-03 -1.00e+00  5.30e+09 -1.00e+00 >    0.0000    0.0000    0.0000   54.8304   80.4274   -0.9600    0.0000   0.00 359.0  -1.0  0     0.0000
FNEB   ?    ?    ? P      ? 20220201 0203   11.8300 GAU  2.50e-03 -1.00e+00  1.42e+11 -1.00e+00 >    0.0000    0.0000    0.0000   98.2626   89.3008   -0.6000    0.0000   0.00 359.0  -1.0  0     0.0000
VALC   ?    ?    ? S      ? 20220201 0203   15.4100 GAU  1.50e-02 -1.00e+00  2.47e+09 -1.00e+00 >    0.0000    0.0000    0.0000   93.6562   31.9810   -1.5600    0.0000   0.00 359.0  -1.0  0     0.0000
CARF   ?    ?    ? S      ? 20220201 0203   17.3000 GAU  1.50e-02 -1.00e+00  9.98e+11 -1.00e+00 >    0.0000    0.0000    0.0000   98.4149   68.3739   -1.2200    0.0000   0.00 359.0  -1.0  0     0.0000
END_PHASE
END_NLLOC

