NLLOC "/Users/roberto/Documents/SurfQuake/loc_flow_isp/loc_flow_tools/location_output/loc/location.20220201.021011.grid0" "LOCATED" "Location completed."
SIGNATURE "Integrated Seismic Program   obs:/Users/roberto/Documents/SurfQuake/loc_flow_isp/loc_flow_tools/location_output/obs/nll_input.txt   NLLoc:v7.00.00(27Oct2017)  run:11Sep2023 20h14m56"
COMMENT ""
GRID  80 80 50  0 0 -3  1 1 1 PROB_DENSITY
SEARCH OCTREE nInitial 1000 nEvaluated 25000 smallestNodeSide 0.012344/0.123438/0.781250 oct_tree_integral 9.087867e+00 scatter_volume 9.087867e+00
HYPOCENTER  x 44.3511 y 48.0172 z 5.59375  OT 9.70632  ix -1 iy -1 iz -1 MAXIMUM_LIKELIHOOD
GEOGRAPHIC  OT 2022 02 01  02 10 9.706324  Lat 42.532155 Long 1.441676 Depth 5.593750
QUALITY  Pmax 3.10763e+21 MFmin 12.4102 MFmax 12.5972 RMS 0.0857853 Nphs 10 Gap 160.624 Dist 8.60857 Mamp -9.90 0 Mdur -9.90 0
VPVSRATIO  VpVsRatio 1.78082  Npair 5  Diff 3.25
STATISTICS  ExpectX 44.3041 Y 47.915 Z 4.84081  CovXX 0.460996 XY 0.211176 XZ 1.38189 YY 0.563505 YZ 0.846592 ZZ 7.83738 EllAz1  102.081 Dip1  -8.7381 Len1  0.837263 Az2  10.7769 Dip2  -8.4231 Len2  1.29637 Len3  5.375951e+00
STAT_GEOG  ExpectLat 42.531235 Long 1.441094 Depth 4.840813
TRANSFORM  SIMPLE LatOrig 42.100000  LongOrig 0.900000  RotCW 0.000000
QML_OriginQuality  assocPhCt 20  usedPhCt 10  assocStaCt -1  usedStaCt 5  depthPhCt -1  stdErr 0.0857853  azGap 160.624  secAzGap 160.624  gtLevel -  minDist 8.60857 maxDist 35.1508 medDist 17.0739
QML_OriginUncertainty  horUnc -1  minHorUnc 0.823632  maxHorUnc 1.29537  azMaxHorUnc 38.1788
QML_ConfidenceEllipsoid  semiMajorAxisLength 5.37595  semiMinorAxisLength 0.837263  semiIntermediateAxisLength 1.29637  majorAxisPlunge 77.817  majorAxisAzimuth 57.4724  majorAxisRotation 48.7062
FOCALMECH  Hyp  42.532155 1.441676 5.593750 Mech  0 0 0 mf  0 nObs 0
PHASE ID Ins Cmp On Pha  FM Date     HrMn   Sec     Err  ErrMag    Coda      Amp       Per  >   TTpred    Res       Weight    StaLoc(X  Y         Z)        SDist    SAzim  RAz  RDip RQual    Tcorr 
PAND   ?    ?    ? P      ? 20220201 0210   11.6300 GAU  2.50e-03 -1.00e+00  2.45e+11 -1.00e+00 >    1.8663    0.0573    1.0302   52.9083   47.0778   -1.8400    8.6086  96.26  96.3 130.8  9     0.0000
PAND   ?    ?    ? S      ? 20220201 0210   13.0000 GAU  2.50e-03 -1.00e+00  2.45e+11 -1.00e+00 >    3.2621    0.0316    1.0444   52.9083   47.0778   -1.8400    8.6086  96.26  96.3 130.8  9     0.0000
ARBS   ?    ?    ? P      ? 20220201 0210   12.0800 GAU  2.50e-03 -1.00e+00  8.05e+07 -1.00e+00 >    2.5183   -0.1447    0.9141   51.9713   37.1658   -2.1450   13.2597 144.92 144.9 120.1  9     0.0000
ARBS   ?    ?    ? S      ? 20220201 0210   14.0900 GAU  7.50e-03 -1.00e+00  1.68e+08 -1.00e+00 >    4.4017   -0.0180    1.0470   51.9713   37.1658   -2.1450   13.2597 144.92 144.9 120.1  9     0.0000
CEST   ?    ?    ? P      ? 20220201 0210   12.8600 GAU  2.50e-03 -1.00e+00  2.53e+08 -1.00e+00 >    3.0267    0.1270    0.9515   28.9586   55.4057   -1.3250   17.0739 295.64 295.6 111.9  9     0.0000
CEST   ?    ?    ? S      ? 20220201 0210   14.9400 GAU  5.00e-03 -1.00e+00  4.18e+08 -1.00e+00 >    5.2902   -0.0565    1.0270   28.9586   55.4057   -1.3250   17.0739 295.64 295.6 111.9  9     0.0000
CSOR   ?    ?    ? P      ? 20220201 0210   14.8400 GAU  2.50e-03 -1.00e+00  1.15e+08 -1.00e+00 >    5.1736   -0.0399    1.0381   19.1045   30.4921   -1.2270   30.7330 235.23 235.2 102.8  9     0.0000
CSOR   ?    ?    ? S      ? 20220201 0210   18.7300 GAU  5.00e-03 -1.00e+00  2.44e+08 -1.00e+00 >    9.0427   -0.0190    1.0469   19.1045   30.4921   -1.2270   30.7330 235.23 235.2 102.8  9     0.0000
CORG   ?    ?    ? P      ? 20220201 0210   15.5100 GAU  7.50e-03 -1.00e+00  4.68e+07 -1.00e+00 >    5.8673   -0.0636    1.0210   34.2696   14.3431   -0.7200   35.1508 196.67 196.7 100.6  9     0.0000
CORG   ?    ?    ? S      ? 20220201 0210   20.1300 GAU  2.00e-02 -1.00e+00  5.05e+07 -1.00e+00 >   10.2552    0.1685    0.8798   34.2696   14.3431   -0.7200   35.1508 196.67 196.7 100.6  9     0.0000
FNEB   ?    ?    ? S      ? 20220201 0210   30.2700 GAU  2.00e-02 -1.00e+00  6.54e+09 -1.00e+00 >    0.0000    0.0000    0.0000   98.1884   89.2333   -0.6000    0.0000   0.00 359.0  -1.0  0     0.0000
SALF   ?    ?    ? P      ? 20220201 0210   15.4200 GAU  5.00e-03 -1.00e+00  2.26e+10 -1.00e+00 >    0.0000    0.0000    0.0000   23.5194   73.2222   -0.9030    0.0000   0.00 359.0  -1.0  0     0.0000
GENF   ?    ?    ? P      ? 20220201 0210   15.8700 GAU  2.50e-03 -1.00e+00  7.34e+07 -1.00e+00 >    0.0000    0.0000    0.0000   54.7890   80.3667   -0.9600    0.0000   0.00 359.0  -1.0  0     0.0000
VALC   ?    ?    ? P      ? 20220201 0210   18.3100 GAU  2.50e-03 -1.00e+00  3.23e+07 -1.00e+00 >    0.0000    0.0000    0.0000   93.5854   31.9569   -1.5600    0.0000   0.00 359.0  -1.0  0     0.0000
SALF   ?    ?    ? S      ? 20220201 0210   19.2200 GAU  7.50e-03 -1.00e+00  9.14e+10 -1.00e+00 >    0.0000    0.0000    0.0000   23.5194   73.2222   -0.9030    0.0000   0.00 359.0  -1.0  0     0.0000
CARF   ?    ?    ? P      ? 20220201 0210   19.6300 GAU  2.50e-03 -1.00e+00  7.17e+09 -1.00e+00 >    0.0000    0.0000    0.0000   98.3406   68.3222   -1.2200    0.0000   0.00 359.0  -1.0  0     0.0000
GENF   ?    ?    ? S      ? 20220201 0210   20.1700 GAU  7.50e-03 -1.00e+00  7.34e+07 -1.00e+00 >    0.0000    0.0000    0.0000   54.7890   80.3667   -0.9600    0.0000   0.00 359.0  -1.0  0     0.0000
FNEB   ?    ?    ? P      ? 20220201 0210   21.6800 GAU  1.00e-02 -1.00e+00  4.15e+09 -1.00e+00 >    0.0000    0.0000    0.0000   98.1884   89.2333   -0.6000    0.0000   0.00 359.0  -1.0  0     0.0000
VALC   ?    ?    ? S      ? 20220201 0210   25.7600 GAU  1.50e-02 -1.00e+00  3.23e+07 -1.00e+00 >    0.0000    0.0000    0.0000   93.5854   31.9569   -1.5600    0.0000   0.00 359.0  -1.0  0     0.0000
CARF   ?    ?    ? S      ? 20220201 0210   27.0500 GAU  5.00e-03 -1.00e+00  1.59e+10 -1.00e+00 >    0.0000    0.0000    0.0000   98.3406   68.3222   -1.2200    0.0000   0.00 359.0  -1.0  0     0.0000
END_PHASE
END_NLLOC

