NLLOC "/Users/roberto/Documents/SurfQuake/loc_flow_isp/loc_flow_tools/location_output/loc/location.20220202.233532.grid0" "LOCATED" "Location completed."
SIGNATURE "Integrated Seismic Program   obs:/Users/roberto/Documents/SurfQuake/loc_flow_isp/loc_flow_tools/location_output/obs/nll_input.txt   NLLoc:v7.00.00(27Oct2017)  run:11Sep2023 20h14m56"
COMMENT ""
GRID  80 80 50  0 0 -3  1 1 1 PROB_DENSITY
SEARCH OCTREE nInitial 1000 nEvaluated 25000 smallestNodeSide 0.012344/0.123438/0.781250 oct_tree_integral 1.681350e+01 scatter_volume 1.679634e+01
HYPOCENTER  x 44.1721 y 47.5852 z 4.42188  OT 30.8713  ix -1 iy -1 iz -1 MAXIMUM_LIKELIHOOD
GEOGRAPHIC  OT 2022 02 02  23 35 30.871262  Lat 42.528266 Long 1.439456 Depth 4.421875
QUALITY  Pmax 4.16124e+20 MFmin 12.4195 MFmax 12.5913 RMS 0.126872 Nphs 10 Gap 156.118 Dist 8.75087 Mamp -9.90 0 Mdur -9.90 0
VPVSRATIO  VpVsRatio 1.83364  Npair 5  Diff 3.41
STATISTICS  ExpectX 44.1935 Y 47.7011 Z 3.46833  CovXX 0.519177 XY 0.280766 XZ 1.46235 YY 0.850623 YZ 0.980668 ZZ 9.75853 EllAz1  104.844 Dip1  -6.97622 Len1  0.957373 Az2  13.828 Dip2  -8.24363 Len2  1.65231 Len3  5.969615e+00
STAT_GEOG  ExpectLat 42.529310 Long 1.439726 Depth 3.468326
TRANSFORM  SIMPLE LatOrig 42.100000  LongOrig 0.900000  RotCW 0.000000
QML_OriginQuality  assocPhCt 19  usedPhCt 10  assocStaCt -1  usedStaCt 5  depthPhCt -1  stdErr 0.126872  azGap 156.118  secAzGap 156.118  gtLevel -  minDist 8.75087 maxDist 34.6856 medDist 17.1059
QML_OriginUncertainty  horUnc -1  minHorUnc 0.908519  maxHorUnc 1.52484  azMaxHorUnc 29.7243
QML_ConfidenceEllipsoid  semiMajorAxisLength 5.96961  semiMinorAxisLength 0.957373  semiIntermediateAxisLength 1.65231  majorAxisPlunge 79.1691  majorAxisAzimuth 54.6042  majorAxisRotation 42.3477
FOCALMECH  Hyp  42.528266 1.439456 4.421875 Mech  0 0 0 mf  0 nObs 0
PHASE ID Ins Cmp On Pha  FM Date     HrMn   Sec     Err  ErrMag    Coda      Amp       Per  >   TTpred    Res       Weight    StaLoc(X  Y         Z)        SDist    SAzim  RAz  RDip RQual    Tcorr 
PAND   ?    ?    ? P      ? 20220202 2335   32.6800 GAU  2.50e-03 -1.00e+00  3.60e+10 -1.00e+00 >    1.7657    0.0430    1.1300   52.9083   47.0778   -1.8400    8.7509  93.32  93.3 125.5  9     0.0000
PAND   ?    ?    ? S      ? 20220202 2335   34.1100 GAU  2.50e-03 -1.00e+00  5.94e+10 -1.00e+00 >    3.0862    0.1525    1.0154   52.9083   47.0778   -1.8400    8.7509  93.32  93.3 125.5  9     0.0000
ARBS   ?    ?    ? P      ? 20220202 2335   33.1400 GAU  2.50e-03 -1.00e+00  1.51e+07 -1.00e+00 >    2.3909   -0.1222    1.0240   51.9713   37.1658   -2.1450   13.0150 143.18 143.2 116.6  9     0.0000
ARBS   ?    ?    ? S      ? 20220202 2335   34.9200 GAU  7.50e-03 -1.00e+00  2.16e+07 -1.00e+00 >    4.1790   -0.1303    1.0104   51.9713   37.1658   -2.1450   13.0150 143.18 143.2 116.6  9     0.0000
CEST   ?    ?    ? P      ? 20220202 2335   33.9100 GAU  2.50e-03 -1.00e+00  3.27e+07 -1.00e+00 >    2.9649    0.0738    1.1114   28.9586   55.4057   -1.3250   17.1059 297.21 297.2 108.5  9     0.0000
CEST   ?    ?    ? S      ? 20220202 2335   35.9400 GAU  7.50e-03 -1.00e+00  3.61e+07 -1.00e+00 >    5.1822   -0.1135    1.0377   28.9586   55.4057   -1.3250   17.1059 297.21 297.2 108.5  9     0.0000
CSOR   ?    ?    ? P      ? 20220202 2335   35.9600 GAU  5.00e-03 -1.00e+00  3.02e+07 -1.00e+00 >    5.0707    0.0180    1.1363   19.1045   30.4921   -1.2270   30.3407 235.71 235.7 101.0  9     0.0000
CSOR   ?    ?    ? S      ? 20220202 2335   39.8100 GAU  5.00e-03 -1.00e+00  2.99e+07 -1.00e+00 >    8.8629    0.0759    1.1097   19.1045   30.4921   -1.2270   30.3407 235.71 235.7 101.0  9     0.0000
CORG   ?    ?    ? P      ? 20220202 2335   36.6000 GAU  7.50e-03 -1.00e+00  7.43e+06 -1.00e+00 >    5.7592   -0.0305    1.1253   34.2696   14.3431   -0.7200   34.6856 196.59 196.6  99.0  9     0.0000
CORG   ?    ?    ? S      ? 20220202 2335   41.4400 GAU  1.00e-02 -1.00e+00  9.92e+06 -1.00e+00 >   10.0663    0.5025    0.2997   34.2696   14.3431   -0.7200   34.6856 196.59 196.6  99.0  9     0.0000
FNEB   ?    ?    ? S      ? 20220202 2335   51.6100 GAU  2.00e-02 -1.00e+00  1.07e+09 -1.00e+00 >    0.0000    0.0000    0.0000   98.1884   89.2333   -0.6000    0.0000   0.00 359.0  -1.0  0     0.0000
SALF   ?    ?    ? P      ? 20220202 2335   36.4400 GAU  5.00e-03 -1.00e+00  2.98e+09 -1.00e+00 >    0.0000    0.0000    0.0000   23.5194   73.2222   -0.9030    0.0000   0.00 359.0  -1.0  0     0.0000
GENF   ?    ?    ? P      ? 20220202 2335   36.9000 GAU  2.50e-03 -1.00e+00  6.70e+06 -1.00e+00 >    0.0000    0.0000    0.0000   54.7890   80.3667   -0.9600    0.0000   0.00 359.0  -1.0  0     0.0000
VALC   ?    ?    ? P      ? 20220202 2335   37.8700 GAU  2.00e-02 -1.00e+00  6.82e+06 -1.00e+00 >    0.0000    0.0000    0.0000   93.5854   31.9569   -1.5600    0.0000   0.00 359.0  -1.0  0     0.0000
SALF   ?    ?    ? S      ? 20220202 2335   40.2900 GAU  7.50e-03 -1.00e+00  2.98e+09 -1.00e+00 >    0.0000    0.0000    0.0000   23.5194   73.2222   -0.9030    0.0000   0.00 359.0  -1.0  0     0.0000
CARF   ?    ?    ? P      ? 20220202 2335   40.7100 GAU  5.00e-03 -1.00e+00  1.12e+09 -1.00e+00 >    0.0000    0.0000    0.0000   98.3406   68.3222   -1.2200    0.0000   0.00 359.0  -1.0  0     0.0000
GENF   ?    ?    ? S      ? 20220202 2335   41.2200 GAU  7.50e-03 -1.00e+00  1.50e+07 -1.00e+00 >    0.0000    0.0000    0.0000   54.7890   80.3667   -0.9600    0.0000   0.00 359.0  -1.0  0     0.0000
VALC   ?    ?    ? S      ? 20220202 2335   46.8500 GAU  1.00e-02 -1.00e+00  7.44e+06 -1.00e+00 >    0.0000    0.0000    0.0000   93.5854   31.9569   -1.5600    0.0000   0.00 359.0  -1.0  0     0.0000
CARF   ?    ?    ? S      ? 20220202 2335   48.1100 GAU  5.00e-03 -1.00e+00  2.19e+09 -1.00e+00 >    0.0000    0.0000    0.0000   98.3406   68.3222   -1.2200    0.0000   0.00 359.0  -1.0  0     0.0000
END_PHASE
END_NLLOC

