NLLOC "/Users/roberto/Documents/SurfQuakeCore/examples/earthquake_locate/loc/location.20220202.113337.grid0" "LOCATED" "Location completed."
PUBLIC_ID None
SIGNATURE "Integrated Seismic Program   obs:/Users/roberto/Documents/SurfQuakeCore/examples/earthquake_locate/nll_picks/nll_input.txt   NLLoc:v7.00.13(17Jan2022)   run:29Nov2023 09h21m46"
COMMENT ""
GRID  80 80 50  0 0 -3  1 1 1 PROB_DENSITY
SEARCH OCTREE nInitial 1000 nEvaluated 25008 smallestNodeSide 0.012344/0.123438/0.765625 oct_tree_integral 1.488574e+01 scatter_volume 1.488574e+01
HYPOCENTER  x 36.7782 y 49.5602 z 12.6953  OT 35.6056  ix -1 iy -1 iz -1 MAXIMUM_LIKELIHOOD
GEOGRAPHIC  OT 2022 02 02  11 33 35.605620  Lat 42.545705 Long 1.348944 Depth 12.695312
QUALITY  Pmax 3.03063e+15 MFmin 11.0885 MFmax 11.2079 RMS 0.0781732 Nphs 9 Gap 151.551 Dist 9.77065 Mamp -9.90 0 Mdur -9.90 0
VPVSRATIO  VpVsRatio 1.4904  Npair 4  Diff 1.73
STATISTICS  ExpectX 38.079438 Y 49.321013 Z 11.224172  CovXX 2.0812 XY -0.57695 XZ -2.26213 YY 2.17318 YZ 3.46183 ZZ 10.6161 EllAz1  341.759 Dip1  -22.2919 Len1  1.75146 Az2  249.408 Dip2  -5.71476 Len2  2.39328 Len3  6.610395e+00
STAT_GEOG  ExpectLat 42.543554 Long 1.364811 Depth 11.224172
TRANSFORM  SIMPLE LatOrig 42.100000  LongOrig 0.900000  RotCW 0.000000
QML_OriginQuality  assocPhCt 16  usedPhCt 9  assocStaCt -1  usedStaCt 5  depthPhCt -1  stdErr 0.0781732  azGap 151.551  secAzGap 151.551  gtLevel -  minDist 9.77065 maxDist 35.2936 medDist 19.6201
QML_OriginUncertainty  horUnc -1  minHorUnc 1.88715  maxHorUnc 2.49474  azMaxHorUnc 137.279
QML_ConfidenceEllipsoid  semiMajorAxisLength 6.61039  semiMinorAxisLength 1.75146  semiIntermediateAxisLength 2.39328  majorAxisPlunge -66.91  majorAxisAzimuth 145.832  majorAxisRotation 100.302
FOCALMECH  Hyp  42.545705 1.348944 12.695312 Mech  0 0 0 mf  0 nObs -1
PHASE ID Ins Cmp On Pha  FM Date     HrMn   Sec     Err  ErrMag    Coda      Amp       Per  >   TTpred    Res       Weight    StaLoc(X  Y         Z)        SDist    SAzim  RAz  RDip RQual    Tcorr 
CEST   ?    ?    ? P      ? 20220202 1133   38.4000 GAU  2.50e-03 -1.00e+00  2.21e+07 -1.00e+00 >    2.7884    0.0060    1.4929   28.9805   55.4475   -1.3250    9.7707 307.05 307.1 143.8  9     0.0000
CEST   ?    ?    ? S      ? 20220202 1133   40.4500 GAU  7.50e-03 -1.00e+00  1.74e+07 -1.00e+00 >    4.8739   -0.0295    1.4885   28.9805   55.4475   -1.3250    9.7707 307.05 307.1 143.8  9     0.0000
PAND   ?    ?    ? P      ? 20220202 1133   38.4900 GAU  2.00e-02 -1.00e+00  2.36e+10 -1.00e+00 >    3.5687   -0.6844    0.0995   52.9482   47.1134   -1.8400   16.3541  98.60  98.6 128.5  9     0.0000
PAND   ?    ?    ? S      ? 20220202 1133   41.8500 GAU  2.00e-02 -1.00e+00  2.36e+10 -1.00e+00 >    6.2380    0.0064    1.4901   52.9482   47.1134   -1.8400   16.3541  98.60  98.6 128.6  9     0.0000
ARBS   ?    ?    ? P      ? 20220202 1133   37.6500 GAU  1.50e-02 -1.00e+00  1.33e+07 -1.00e+00 >    4.0149   -1.9705    0.0000   52.0106   37.1939   -2.1450   19.6201 129.07 129.1 123.4  9     0.0000
ARBS   ?    ?    ? S      ? 20220202 1133   39.4400 GAU  2.00e-02 -1.00e+00  1.33e+07 -1.00e+00 >    7.0177   -3.1834    0.0000   52.0106   37.1939   -2.1450   19.6201 129.07 129.1 123.4  9     0.0000
CSOR   ?    ?    ? P      ? 20220202 1133   40.4800 GAU  5.00e-03 -1.00e+00  9.94e+06 -1.00e+00 >    4.8134    0.0610    1.4473   19.1189   30.5152   -1.2270   25.9723 222.84 222.8 113.1  9     0.0000
CSOR   ?    ?    ? S      ? 20220202 1133   44.0000 GAU  7.50e-03 -1.00e+00  9.94e+06 -1.00e+00 >    8.4136   -0.0192    1.4923   19.1189   30.5152   -1.2270   25.9723 222.84 222.8 113.1  9     0.0000
CORG   ?    ?    ? P      ? 20220202 1133   41.7500 GAU  2.00e-02 -1.00e+00  7.34e+06 -1.00e+00 >    6.1660   -0.0216    1.4894   34.2955   14.3539   -0.7200   35.2936 184.03 184.0 103.9  9     0.0000
CARF   ?    ?    ? S      ? 20220202 1133   55.8400 GAU  1.50e-02 -1.00e+00  1.87e+09 -1.00e+00 >    0.0000    0.0000    0.0000   98.4149   68.3739   -1.2200    0.0000   0.00 359.0  -1.0  0     0.0000
VALC   ?    ?    ? S      ? 20220202 1133   57.3500 GAU  2.00e-02 -1.00e+00  9.39e+06 -1.00e+00 >    0.0000    0.0000    0.0000   93.6562   31.9810   -1.5600    0.0000   0.00 359.0  -1.0  0     0.0000
GENF   ?    ?    ? S      ? 20220202 1133   45.6500 GAU  1.50e-02 -1.00e+00  6.65e+06 -1.00e+00 >    0.0000    0.0000    0.0000   54.8304   80.4274   -0.9600    0.0000   0.00 359.0  -1.0  0     0.0000
SALF   ?    ?    ? S      ? 20220202 1133   48.3700 GAU  2.00e-02 -1.00e+00  5.22e+09 -1.00e+00 >    0.0000    0.0000    0.0000   23.5372   73.2776   -0.9030    0.0000   0.00 359.0  -1.0  0     0.0000
SALF   ?    ?    ? P      ? 20220202 1133   41.0800 GAU  2.00e-02 -1.00e+00  3.09e+09 -1.00e+00 >    0.0000    0.0000    0.0000   23.5372   73.2776   -0.9030    0.0000   0.00 359.0  -1.0  0     0.0000
GENF   ?    ?    ? P      ? 20220202 1133   41.3200 GAU  2.00e-02 -1.00e+00  5.51e+06 -1.00e+00 >    0.0000    0.0000    0.0000   54.8304   80.4274   -0.9600    0.0000   0.00 359.0  -1.0  0     0.0000
CARF   ?    ?    ? P      ? 20220202 1133   52.3600 GAU  7.50e-03 -1.00e+00  1.87e+09 -1.00e+00 >    0.0000    0.0000    0.0000   98.4149   68.3739   -1.2200    0.0000   0.00 359.0  -1.0  0     0.0000
END_PHASE
END_NLLOC

