NLLOC "/Users/roberto/Documents/SurfQuakeCore/examples/earthquake_locate/loc/location.20220201.021011.grid0" "LOCATED" "Location completed."
PUBLIC_ID None
SIGNATURE "Integrated Seismic Program   obs:/Users/roberto/Documents/SurfQuakeCore/examples/earthquake_locate/nll_picks/nll_input.txt   NLLoc:v7.00.13(17Jan2022)   run:29Nov2023 09h21m45"
COMMENT ""
GRID  80 80 50  0 0 -3  1 1 1 PROB_DENSITY
SEARCH OCTREE nInitial 1000 nEvaluated 25008 smallestNodeSide 0.012344/0.123438/0.765625 oct_tree_integral 9.079070e+00 scatter_volume 9.079070e+00
HYPOCENTER  x 44.4313 y 48.0789 z 5.80469  OT 9.67913  ix -1 iy -1 iz -1 MAXIMUM_LIKELIHOOD
GEOGRAPHIC  OT 2022 02 01  02 10 9.679130  Lat 42.532383 Long 1.442248 Depth 5.804688
QUALITY  Pmax 3.14132e+21 MFmin 12.4102 MFmax 12.5919 RMS 0.0855628 Nphs 10 Gap 160.971 Dist 8.57147 Mamp -9.90 0 Mdur -9.90 0
VPVSRATIO  VpVsRatio 1.78082  Npair 5  Diff 3.25
STATISTICS  ExpectX 44.324134 Y 47.930974 Z 4.808549  CovXX 0.445901 XY 0.200623 XZ 1.33084 YY 0.557387 YZ 0.829234 ZZ 7.76823 EllAz1  101.642 Dip1  -8.53801 Len1  0.841436 Az2  10.3971 Dip2  -8.234 Len2  1.29107 Len3  5.346829e+00
STAT_GEOG  ExpectLat 42.531053 Long 1.440928 Depth 4.808549
TRANSFORM  SIMPLE LatOrig 42.100000  LongOrig 0.900000  RotCW 0.000000
QML_OriginQuality  assocPhCt 20  usedPhCt 10  assocStaCt -1  usedStaCt 5  depthPhCt -1  stdErr 0.0855628  azGap 160.971  secAzGap 160.971  gtLevel -  minDist 8.57147 maxDist 35.2152 medDist 17.118
QML_OriginUncertainty  horUnc -1  minHorUnc 0.821503  maxHorUnc 1.27777  azMaxHorUnc 37.236
QML_ConfidenceEllipsoid  semiMajorAxisLength 5.34683  semiMinorAxisLength 0.841436  semiIntermediateAxisLength 1.29107  majorAxisPlunge 78.0953  majorAxisAzimuth 57.0503  majorAxisRotation 48.5701
FOCALMECH  Hyp  42.532383 1.442248 5.804688 Mech  0 0 0 mf  0 nObs -1
PHASE ID Ins Cmp On Pha  FM Date     HrMn   Sec     Err  ErrMag    Coda      Amp       Per  >   TTpred    Res       Weight    StaLoc(X  Y         Z)        SDist    SAzim  RAz  RDip RQual    Tcorr 
PAND   ?    ?    ? P      ? 20220201 0210   11.6300 GAU  2.50e-03 -1.00e+00  2.45e+11 -1.00e+00 >    1.8843    0.0666    1.0239   52.9482   47.1134   -1.8400    8.5715  96.47  96.5 131.7  9     0.0000
PAND   ?    ?    ? S      ? 20220201 0210   13.0000 GAU  2.50e-03 -1.00e+00  2.45e+11 -1.00e+00 >    3.2934    0.0275    1.0459   52.9482   47.1134   -1.8400    8.5715  96.47  96.5 131.7  9     0.0000
ARBS   ?    ?    ? P      ? 20220201 0210   12.0800 GAU  2.50e-03 -1.00e+00  8.05e+07 -1.00e+00 >    2.5362   -0.1353    0.9267   52.0106   37.1939   -2.1450   13.2638 145.15 145.2 120.8  9     0.0000
ARBS   ?    ?    ? S      ? 20220201 0210   14.0900 GAU  7.50e-03 -1.00e+00  1.68e+08 -1.00e+00 >    4.4329   -0.0220    1.0447   52.0106   37.1939   -2.1450   13.2638 145.15 145.2 120.8  9     0.0000
CEST   ?    ?    ? P      ? 20220201 0210   12.8600 GAU  2.50e-03 -1.00e+00  2.53e+08 -1.00e+00 >    3.0462    0.1346    0.9418   28.9805   55.4475   -1.3250   17.1180 295.50 295.5 112.4  9     0.0000
CEST   ?    ?    ? S      ? 20220201 0210   14.9400 GAU  5.00e-03 -1.00e+00  4.18e+08 -1.00e+00 >    5.3244   -0.0635    1.0193   28.9805   55.4475   -1.3250   17.1180 295.50 295.5 112.4  9     0.0000
CSOR   ?    ?    ? P      ? 20220201 0210   14.8400 GAU  2.50e-03 -1.00e+00  1.15e+08 -1.00e+00 >    5.1934   -0.0325    1.0406   19.1189   30.5152   -1.2270   30.8091 235.24 235.2 103.2  9     0.0000
CSOR   ?    ?    ? S      ? 20220201 0210   18.7300 GAU  5.00e-03 -1.00e+00  2.44e+08 -1.00e+00 >    9.0773   -0.0264    1.0432   19.1189   30.5152   -1.2270   30.8091 235.24 235.2 103.2  9     0.0000
CORG   ?    ?    ? P      ? 20220201 0210   15.5100 GAU  7.50e-03 -1.00e+00  4.68e+07 -1.00e+00 >    5.8840   -0.0531    1.0276   34.2955   14.3539   -0.7200   35.2152 196.73 196.7 100.9  9     0.0000
CORG   ?    ?    ? S      ? 20220201 0210   20.1300 GAU  2.00e-02 -1.00e+00  5.05e+07 -1.00e+00 >   10.2844    0.1665    0.8861   34.2955   14.3539   -0.7200   35.2152 196.73 196.7 100.9  9     0.0000
FNEB   ?    ?    ? S      ? 20220201 0210   30.2700 GAU  2.00e-02 -1.00e+00  6.54e+09 -1.00e+00 >    0.0000    0.0000    0.0000   98.2626   89.3008   -0.6000    0.0000   0.00 359.0  -1.0  0     0.0000
SALF   ?    ?    ? P      ? 20220201 0210   15.4200 GAU  5.00e-03 -1.00e+00  2.26e+10 -1.00e+00 >    0.0000    0.0000    0.0000   23.5372   73.2776   -0.9030    0.0000   0.00 359.0  -1.0  0     0.0000
GENF   ?    ?    ? P      ? 20220201 0210   15.8700 GAU  2.50e-03 -1.00e+00  7.34e+07 -1.00e+00 >    0.0000    0.0000    0.0000   54.8304   80.4274   -0.9600    0.0000   0.00 359.0  -1.0  0     0.0000
VALC   ?    ?    ? P      ? 20220201 0210   18.3100 GAU  2.50e-03 -1.00e+00  3.23e+07 -1.00e+00 >    0.0000    0.0000    0.0000   93.6562   31.9810   -1.5600    0.0000   0.00 359.0  -1.0  0     0.0000
SALF   ?    ?    ? S      ? 20220201 0210   19.2200 GAU  7.50e-03 -1.00e+00  9.14e+10 -1.00e+00 >    0.0000    0.0000    0.0000   23.5372   73.2776   -0.9030    0.0000   0.00 359.0  -1.0  0     0.0000
CARF   ?    ?    ? P      ? 20220201 0210   19.6300 GAU  2.50e-03 -1.00e+00  7.17e+09 -1.00e+00 >    0.0000    0.0000    0.0000   98.4149   68.3739   -1.2200    0.0000   0.00 359.0  -1.0  0     0.0000
GENF   ?    ?    ? S      ? 20220201 0210   20.1700 GAU  7.50e-03 -1.00e+00  7.34e+07 -1.00e+00 >    0.0000    0.0000    0.0000   54.8304   80.4274   -0.9600    0.0000   0.00 359.0  -1.0  0     0.0000
FNEB   ?    ?    ? P      ? 20220201 0210   21.6800 GAU  1.00e-02 -1.00e+00  4.15e+09 -1.00e+00 >    0.0000    0.0000    0.0000   98.2626   89.3008   -0.6000    0.0000   0.00 359.0  -1.0  0     0.0000
VALC   ?    ?    ? S      ? 20220201 0210   25.7600 GAU  1.50e-02 -1.00e+00  3.23e+07 -1.00e+00 >    0.0000    0.0000    0.0000   93.6562   31.9810   -1.5600    0.0000   0.00 359.0  -1.0  0     0.0000
CARF   ?    ?    ? S      ? 20220201 0210   27.0500 GAU  5.00e-03 -1.00e+00  1.59e+10 -1.00e+00 >    0.0000    0.0000    0.0000   98.4149   68.3739   -1.2200    0.0000   0.00 359.0  -1.0  0     0.0000
END_PHASE
END_NLLOC

