NLLOC "/Users/roberto/Documents/SurfQuakeCore/examples/earthquake_locate/loc/location.20220201.174526.grid0" "LOCATED" "Location completed."
PUBLIC_ID None
SIGNATURE "Integrated Seismic Program   obs:/Users/roberto/Documents/SurfQuakeCore/examples/earthquake_locate/nll_picks/nll_input.txt   NLLoc:v7.00.13(17Jan2022)   run:29Nov2023 09h21m46"
COMMENT ""
GRID  80 80 50  0 0 -3  1 1 1 PROB_DENSITY
SEARCH OCTREE nInitial 1000 nEvaluated 25008 smallestNodeSide 0.012344/0.123438/0.765625 oct_tree_integral 1.417210e+01 scatter_volume 1.417210e+01
HYPOCENTER  x 43.6784 y 47.3383 z -2.61719  OT 25.1451  ix -1 iy -1 iz -1 MAXIMUM_LIKELIHOOD
GEOGRAPHIC  OT 2022 02 01  17 45 25.145102  Lat 42.525723 Long 1.433002 Depth -2.617188
QUALITY  Pmax 8.15502e+16 MFmin 11.0816 MFmax 11.2979 RMS 0.12742 Nphs 9 Gap 152.503 Dist 9.27261 Mamp -9.90 0 Mdur -9.90 0
VPVSRATIO  VpVsRatio 1.48692  Npair 4  Diff 2.44
STATISTICS  ExpectX 44.147532 Y 47.517752 Z 2.263373  CovXX 0.366663 XY 0.133191 XZ 1.21975 YY 0.551036 YZ 0.466573 ZZ 9.10878 EllAz1  101.51 Dip1  -7.04119 Len1  0.809841 Az2  10.941 Dip2  -4.60036 Len2  1.37879 Len3  5.730318e+00
STAT_GEOG  ExpectLat 42.527337 Long 1.438741 Depth 2.263373
TRANSFORM  SIMPLE LatOrig 42.100000  LongOrig 0.900000  RotCW 0.000000
QML_OriginQuality  assocPhCt 13  usedPhCt 9  assocStaCt -1  usedStaCt 5  depthPhCt -1  stdErr 0.12742  azGap 152.503  secAzGap 152.503  gtLevel -  minDist 9.27261 maxDist 34.2929 medDist 16.7865
QML_OriginUncertainty  horUnc -1  minHorUnc 0.826314  maxHorUnc 1.19495  azMaxHorUnc 27.6557
QML_ConfidenceEllipsoid  semiMajorAxisLength 5.73032  semiMinorAxisLength 0.809841  semiIntermediateAxisLength 1.37879  majorAxisPlunge 81.5764  majorAxisAzimuth 68.0286  majorAxisRotation 57.9447
FOCALMECH  Hyp  42.525723 1.433002 -2.617188 Mech  0 0 0 mf  0 nObs -1
PHASE ID Ins Cmp On Pha  FM Date     HrMn   Sec     Err  ErrMag    Coda      Amp       Per  >   TTpred    Res       Weight    StaLoc(X  Y         Z)        SDist    SAzim  RAz  RDip RQual    Tcorr 
PAND   ?    ?    ? P      ? 20220201 1745   26.5800 GAU  2.50e-03 -1.00e+00  1.68e+10 -1.00e+00 >    1.5275   -0.0926    1.1644   52.9482   47.1134   -1.8400    9.2726  91.39 271.4 200.0  0     0.0000
PAND   ?    ?    ? S      ? 20220201 1745   27.9900 GAU  2.50e-03 -1.00e+00  2.75e+10 -1.00e+00 >    2.6699    0.1750    1.0687   52.9482   47.1134   -1.8400    9.2726  91.39 271.4 200.0  0     0.0000
ARBS   ?    ?    ? S      ? 20220201 1745   28.8000 GAU  1.00e-02 -1.00e+00  1.45e+07 -1.00e+00 >    3.7665   -0.1117    1.1340   52.0106   37.1939   -2.1450   13.1276 140.60 320.6 200.0  0     0.0000
CEST   ?    ?    ? P      ? 20220201 1745   27.9300 GAU  5.00e-03 -1.00e+00  1.12e+07 -1.00e+00 >    2.7629    0.0220    1.2435   28.9805   55.4475   -1.3250   16.7865 298.89 118.9 200.0  0     0.0000
CEST   ?    ?    ? S      ? 20220201 1745   30.0000 GAU  5.00e-03 -1.00e+00  2.02e+07 -1.00e+00 >    4.8291    0.0258    1.2430   28.9805   55.4475   -1.3250   16.7865 298.89 118.9 200.0  0     0.0000
CSOR   ?    ?    ? P      ? 20220201 1745   29.8800 GAU  2.50e-03 -1.00e+00  9.68e+06 -1.00e+00 >    4.8892   -0.1543    1.0520   19.1189   30.5152   -1.2270   29.7688 235.59  55.6 200.0  0     0.0000
CSOR   ?    ?    ? S      ? 20220201 1745   33.7300 GAU  1.00e-02 -1.00e+00  1.28e+07 -1.00e+00 >    8.5456    0.0393    1.2389   19.1189   30.5152   -1.2270   29.7688 235.59  55.6 200.0  0     0.0000
CORG   ?    ?    ? P      ? 20220201 1745   32.0800 GAU  1.00e-02 -1.00e+00  8.13e+06 -1.00e+00 >    5.6351    1.2998    0.0004   34.2955   14.3539   -0.7200   34.2929 195.88  15.9 200.0  0     0.0000
CORG   ?    ?    ? S      ? 20220201 1745   35.2600 GAU  1.50e-02 -1.00e+00  8.13e+06 -1.00e+00 >    9.8492    0.2657    0.8551   34.2955   14.3539   -0.7200   34.2929 195.88  15.9 200.0  0     0.0000
CARF   ?    ?    ? S      ? 20220201 1745   42.0400 GAU  1.00e-02 -1.00e+00  2.02e+09 -1.00e+00 >    0.0000    0.0000    0.0000   98.4149   68.3739   -1.2200    0.0000   0.00 359.0  -1.0  0     0.0000
SALF   ?    ?    ? P      ? 20220201 1745   30.3600 GAU  7.50e-03 -1.00e+00  3.16e+09 -1.00e+00 >    0.0000    0.0000    0.0000   23.5372   73.2776   -0.9030    0.0000   0.00 359.0  -1.0  0     0.0000
SALF   ?    ?    ? S      ? 20220201 1745   34.3000 GAU  1.00e-02 -1.00e+00  8.72e+09 -1.00e+00 >    0.0000    0.0000    0.0000   23.5372   73.2776   -0.9030    0.0000   0.00 359.0  -1.0  0     0.0000
CARF   ?    ?    ? P      ? 20220201 1745   41.8300 GAU  2.00e-02 -1.00e+00  1.32e+09 -1.00e+00 >    0.0000    0.0000    0.0000   98.4149   68.3739   -1.2200    0.0000   0.00 359.0  -1.0  0     0.0000
END_PHASE
END_NLLOC

