NLLOC "/Users/roberto/Documents/SurfQuakeCore/examples/earthquake_locate/loc/location.20220201.031521.grid0" "LOCATED" "Location completed."
PUBLIC_ID None
SIGNATURE "Integrated Seismic Program   obs:/Users/roberto/Documents/SurfQuakeCore/examples/earthquake_locate/nll_picks/nll_input.txt   NLLoc:v7.00.13(17Jan2022)   run:29Nov2023 09h21m46"
COMMENT ""
GRID  80 80 50  0 0 -3  1 1 1 PROB_DENSITY
SEARCH OCTREE nInitial 1000 nEvaluated 25008 smallestNodeSide 0.012344/0.123438/0.765625 oct_tree_integral 1.261541e+01 scatter_volume 1.255619e+01
HYPOCENTER  x 44.4005 y 46.7828 z 3.89062  OT 19.9746  ix -1 iy -1 iz -1 MAXIMUM_LIKELIHOOD
GEOGRAPHIC  OT 2022 02 01  03 15 19.974587  Lat 42.520727 Long 1.441770 Depth 3.890625
QUALITY  Pmax 4.6236e+20 MFmin 12.4189 MFmax 12.5224 RMS 0.0884892 Nphs 10 Gap 148.453 Dist 8.55416 Mamp -9.90 0 Mdur -9.90 0
VPVSRATIO  VpVsRatio 1.86566  Npair 5  Diff 3.6
STATISTICS  ExpectX 44.449835 Y 46.993474 Z 2.908691  CovXX 0.466393 XY 0.273445 XZ 1.35462 YY 0.753113 YZ 0.844374 ZZ 8.63411 EllAz1  106.631 Dip1  -7.1448 Len1  0.855838 Az2  15.5661 Dip2  -8.43675 Len2  1.57113 Len3  5.619819e+00
STAT_GEOG  ExpectLat 42.522622 Long 1.442389 Depth 2.908691
TRANSFORM  SIMPLE LatOrig 42.100000  LongOrig 0.900000  RotCW 0.000000
QML_OriginQuality  assocPhCt 16  usedPhCt 10  assocStaCt -1  usedStaCt 5  depthPhCt -1  stdErr 0.0884892  azGap 148.453  secAzGap 148.453  gtLevel -  minDist 8.55416 maxDist 33.9668 medDist 17.6877
QML_OriginUncertainty  horUnc -1  minHorUnc 0.832055  maxHorUnc 1.45346  azMaxHorUnc 31.1666
QML_ConfidenceEllipsoid  semiMajorAxisLength 5.61982  semiMinorAxisLength 0.855838  semiIntermediateAxisLength 1.57113  majorAxisPlunge 78.9105  majorAxisAzimuth 56.3886  majorAxisRotation 42.4732
FOCALMECH  Hyp  42.520727 1.441770 3.890625 Mech  0 0 0 mf  0 nObs -1
PHASE ID Ins Cmp On Pha  FM Date     HrMn   Sec     Err  ErrMag    Coda      Amp       Per  >   TTpred    Res       Weight    StaLoc(X  Y         Z)        SDist    SAzim  RAz  RDip RQual    Tcorr 
PAND   ?    ?    ? P      ? 20220201 0315   21.6800 GAU  2.50e-03 -1.00e+00  2.64e+10 -1.00e+00 >    1.6891    0.0163    1.1454   52.9482   47.1134   -1.8400    8.5542  87.79  87.8 123.8  9     0.0000
PAND   ?    ?    ? S      ? 20220201 0315   23.0300 GAU  2.50e-03 -1.00e+00  4.03e+10 -1.00e+00 >    2.9523    0.1031    1.0718   52.9482   47.1134   -1.8400    8.5542  87.79  87.8 123.8  9     0.0000
ARBS   ?    ?    ? P      ? 20220201 0315   22.0800 GAU  5.00e-03 -1.00e+00  1.86e+07 -1.00e+00 >    2.2382   -0.1328    1.0233   52.0106   37.1939   -2.1450   12.2418 141.56 141.6 116.2  9     0.0000
ARBS   ?    ?    ? S      ? 20220201 0315   23.8100 GAU  5.00e-03 -1.00e+00  2.75e+07 -1.00e+00 >    3.9120   -0.0766    1.1048   52.0106   37.1939   -2.1450   12.2418 141.56 141.6 116.2  9     0.0000
CEST   ?    ?    ? P      ? 20220201 0315   23.0000 GAU  2.50e-03 -1.00e+00  4.83e+07 -1.00e+00 >    3.0294   -0.0040    1.1473   28.9805   55.4475   -1.3250   17.6877 299.33 299.3 106.5  9     0.0000
CEST   ?    ?    ? S      ? 20220201 0315   25.1800 GAU  7.50e-03 -1.00e+00  3.14e+07 -1.00e+00 >    5.2950   -0.0896    1.0894   28.9805   55.4475   -1.3250   17.6877 299.33 299.3 106.5  9     0.0000
CSOR   ?    ?    ? P      ? 20220201 0315   25.0400 GAU  2.50e-03 -1.00e+00  1.72e+07 -1.00e+00 >    5.0095    0.0559    1.1246   19.1189   30.5152   -1.2270   30.0632 237.24 237.2 100.2  9     0.0000
CSOR   ?    ?    ? S      ? 20220201 0315   28.8000 GAU  1.50e-02 -1.00e+00  3.50e+07 -1.00e+00 >    8.7559    0.0695    1.1113   19.1189   30.5152   -1.2270   30.0632 237.24 237.2 100.2  9     0.0000
CORG   ?    ?    ? P      ? 20220201 0315   25.6300 GAU  7.50e-03 -1.00e+00  7.66e+06 -1.00e+00 >    5.6291    0.0263    1.1420   34.2955   14.3539   -0.7200   33.9668 197.31 197.3  98.3  9     0.0000
CORG   ?    ?    ? S      ? 20220201 0315   30.5800 GAU  7.50e-03 -1.00e+00  7.66e+06 -1.00e+00 >    9.8388    0.7666    0.0402   34.2955   14.3539   -0.7200   33.9668 197.31 197.3  98.3  9     0.0000
CARF   ?    ?    ? S      ? 20220201 0315   36.9800 GAU  7.50e-03 -1.00e+00  1.77e+09 -1.00e+00 >    0.0000    0.0000    0.0000   98.4149   68.3739   -1.2200    0.0000   0.00 359.0  -1.0  0     0.0000
SALF   ?    ?    ? S      ? 20220201 0315   29.5100 GAU  7.50e-03 -1.00e+00  4.92e+09 -1.00e+00 >    0.0000    0.0000    0.0000   23.5372   73.2776   -0.9030    0.0000   0.00 359.0  -1.0  0     0.0000
CARF   ?    ?    ? P      ? 20220201 0315   29.5700 GAU  2.00e-02 -1.00e+00  1.71e+09 -1.00e+00 >    0.0000    0.0000    0.0000   98.4149   68.3739   -1.2200    0.0000   0.00 359.0  -1.0  0     0.0000
SALF   ?    ?    ? P      ? 20220201 0315   25.5400 GAU  2.50e-03 -1.00e+00  8.87e+09 -1.00e+00 >    0.0000    0.0000    0.0000   23.5372   73.2776   -0.9030    0.0000   0.00 359.0  -1.0  0     0.0000
GENF   ?    ?    ? S      ? 20220201 0315   30.2900 GAU  5.00e-03 -1.00e+00  2.08e+07 -1.00e+00 >    0.0000    0.0000    0.0000   54.8304   80.4274   -0.9600    0.0000   0.00 359.0  -1.0  0     0.0000
GENF   ?    ?    ? P      ? 20220201 0315   25.9600 GAU  5.00e-03 -1.00e+00  8.87e+06 -1.00e+00 >    0.0000    0.0000    0.0000   54.8304   80.4274   -0.9600    0.0000   0.00 359.0  -1.0  0     0.0000
END_PHASE
END_NLLOC

